HAWK-11A                
1 62382U 24247F   26068.51231358  .00009457  00000+0  34106-3 0  9991
2 62382  44.9941 114.3328 0005466 327.3713  32.6832 15.28849427 67741
STARLINK-34095          
1 63809U 25092F   26068.32148483  .00028491  00000+0  10401-2 0  9990
2 63809  42.9993 175.0353 0000772 247.0553 113.0217 15.27604081 48551
